STARLINK-30263          
1 57642U 23122L   26068.44532009  .00000526  00000+0  29304-4 0  9997
2 57642  43.0011  93.5321 0001286 265.2703  94.8002 15.26738900142179
FLOCK 4G-36             
1 62675U 25009BU  26068.70726311  .00013573  00000+0  51122-3 0  9993
2 62675  97.4053 151.0513 0003474 324.2456  35.8550 15.27209548 63701
